{
    "links": {
        "self": "http://www.neowsapp.com/rest/v1/neo/3567474?api_key=iIulBulltgU6a56xZRHN4H3l9WmuAYTsLGpBGhQ2"
    },
    "id": "3567474",
    "neo_reference_id": "3567474",
    "name": "(2011 KG20)",
    "designation": "2011 KG20",
    "nasa_jpl_url": "http://ssd.jpl.nasa.gov/sbdb.cgi?sstr=3567474",
    "absolute_magnitude_h": 24.2,
    "estimated_diameter": {
        "kilometers": {
            "estimated_diameter_min": 0.0384197891,
            "estimated_diameter_max": 0.0859092601
        },
        "meters": {
            "estimated_diameter_min": 38.4197891064,
            "estimated_diameter_max": 85.9092601232
        },
        "miles": {
            "estimated_diameter_min": 0.0238729428,
            "estimated_diameter_max": 0.0533815229
        },
        "feet": {
            "estimated_diameter_min": 126.0491808919,
            "estimated_diameter_max": 281.8545369825
        }
    },
    "is_potentially_hazardous_asteroid": false,
    "close_approach_data": [
        {
            "close_approach_date": "2011-06-05",
            "close_approach_date_full": "2011-Jun-05 06:22",
            "epoch_date_close_approach": 1307254920000,
            "relative_velocity": {
                "kilometers_per_second": "23.6883556979",
                "kilometers_per_hour": "85278.0805125181",
                "miles_per_hour": "52988.4828606811"
            },
            "miss_distance": {
                "astronomical": "0.0968903889",
                "lunar": "37.6903612821",
                "kilometers": "14494595.802911643",
                "miles": "9006524.1938529534"
            },
            "orbiting_body": "Earth"
        }
    ],
    "orbital_data": {
        "orbit_id": "5",
        "orbit_determination_date": "2017-04-06 08:53:22",
        "first_observation_date": "2011-05-31",
        "last_observation_date": "2011-06-03",
        "data_arc_in_days": 3,
        "observations_used": 31,
        "orbit_uncertainty": "9",
        "minimum_orbit_intersection": ".0647999",
        "jupiter_tisserand_invariant": "3.053",
        "epoch_osculation": "2455713.5",
        "eccentricity": ".7522287721503563",
        "semi_major_axis": "2.320741649322208",
        "inclination": "22.95195779057044",
        "ascending_node_longitude": "242.1432639220438",
        "orbital_period": "1291.33410591075",
        "perihelion_distance": ".5750130079743707",
        "perihelion_argument": "102.7008909333327",
        "aphelion_distance": "4.066470290670046",
        "perihelion_time": "2455767.288844358332",
        "mean_anomaly": "345.004667746042",
        "mean_motion": ".2787814542744534",
        "equinox": "J2000",
        "orbit_class": {
            "orbit_class_type": "APO",
            "orbit_class_description": "Near-Earth asteroid orbits which cross the Earth’s orbit similar to that of 1862 Apollo",
            "orbit_class_range": "a (semi-major axis) > 1.0 AU; q (perihelion) < 1.017 AU"
        }
    },
    "is_sentry_object": false
}